
STARLINK-2739           
1 48639U 21044B   25005.97291718 -.00025791  00000+0 -17208-2 0  9992
2 48639  53.0524 236.7286 0001412  79.9297 280.1851 15.06357562200216
STARLINK-2736           
1 48640U 21044C   25006.03192352  .00001088  00000+0  91962-4 0  9998
2 48640  53.0551 236.7285 0001476 106.1324 253.9827 15.06395401200159
STARLINK-2754           
1 48641U 21044D   25006.04432282 -.00001826  00000+0 -10370-3 0  9994
2 48641  53.0540 241.3912 0001552  87.7285 272.3882 15.06396852200159
STARLINK-2646           
1 48642U 21044E   25005.92636844  .00009413  00000+0  64965-3 0  9998
2 48642  53.0545 241.9334 0002883  99.8148 260.3167 15.06417396200070
STARLINK-2704           
1 48643U 21044F   25005.97332822  .00001961  00000+0  15052-3 0  9996
2 48643  53.0539 241.7006 0001382  86.3996 273.7151 15.06399711200142
STARLINK-2695           
1 48644U 21044G   25005.97060208  .00013633  00000+0  93226-3 0  9991
2 48644  53.0532 241.7218 0001549  99.5094 260.6070 15.06402712200085
STARLINK-2733           
1 48645U 21044H   25006.33295289 -.00002112  00000+0 -47938-4 0  9994
2 48645  53.0554 234.8423 0001296 103.9027 256.2119 15.36417346200263
STARLINK-2732           
1 48646U 21044J   25005.36610742  .00000343  00000+0  41917-4 0  9995
2 48646  53.0528 244.4309 0001458  78.1054 282.0098 15.06396363199158
STARLINK-2691           
1 48647U 21044K   25005.91667824  .01234314  00000+0  11870-1 0  9990
2 48647  53.0540 236.8768 0000911  98.2363 108.1675 15.63174538  5848
STARLINK-2521           
1 48648U 21044L   25005.97430895  .00000608  00000+0  59697-4 0  9991
2 48648  53.0530 241.8735 0001507  85.5849 274.5312 15.06393866200081
STARLINK-2673           
1 48649U 21044M   25006.02220752 -.00001110  00000+0 -55636-4 0  9998
2 48649  53.0537 241.4947 0001697  86.3690 273.7493 15.06397581200082
STARLINK-2672           
1 48650U 21044N   25005.95218134  .00001673  00000+0  13120-3 0  9995
2 48650  53.0578 241.8042 0002179  79.2777 280.8457 15.06396195200070
STARLINK-2731           
1 48651U 21044P   25006.01484213  .00000086  00000+0  24676-4 0  9993
2 48651  53.0545 241.5267 0001399  97.3812 262.7336 15.06392831200084
STARLINK-2727           
1 48652U 21044Q   25006.01115236 -.00000471  00000+0 -12747-4 0  9996
2 48652  53.0538 241.5415 0001394  99.9885 260.1261 15.06397422200085
STARLINK-2720           
1 48653U 21044R   25006.07380971 -.00001754  00000+0 -98876-4 0  9995
2 48653  53.0531 241.2587 0001305  81.0048 279.1088 15.06398871200098
STARLINK-2651           
1 48654U 21044S   25006.07013024  .00001255  00000+0  10316-3 0  9994
2 48654  53.0549 241.2764 0001787  84.1614 275.9578 15.06397541200150
STARLINK-2657           
1 48655U 21044T   25005.93373807 -.00000598  00000+0 -21245-4 0  9992
2 48655  53.0465 241.8806 0002505  96.1295 263.9980 15.06405841200076
STARLINK-2701           
1 48656U 21044U   25006.06275662  .00002352  00000+0  17673-3 0  9995
2 48656  53.0535 241.3080 0001204  89.3438 270.7689 15.06398243200093
STARLINK-2734           
1 48657U 21044V   25005.36143439 -.00001013  00000+0 -49063-4 0  9998
2 48657  53.0534 244.0970 0002204  69.9644 290.1582 15.06403000199155
STARLINK-2647           
1 48658U 21044W   25006.05538391  .00003909  00000+0  28115-3 0  9999
2 48658  53.0556 241.3428 0002139  93.5346 266.5888 15.06406626200153
STARLINK-2717           
1 48659U 21044X   25006.05168929  .00016695  00000+0  11369-2 0  9994
2 48659  53.0495 241.3600 0000533 115.5149 244.5895 15.06403878200093
STARLINK-2688           
1 48660U 21044Y   25005.70098422  .01992426  41672-2  14679-2 0  9993
2 48660  53.0385 224.6361 0004200 267.6624 206.5931 16.15947856200294
STARLINK-2726           
1 48662U 21044AA  25005.91255328  .00003298  00000+0  24020-3 0  9996
2 48662  53.0541 231.9811 0001694  84.8055 275.3127 15.06399871200212
STARLINK-2667           
1 48663U 21044AB  25005.90886298  .00001930  00000+0  14846-3 0  9998
2 48663  53.0554 231.9988 0001334  83.3122 276.8019 15.06397366200215
STARLINK-2709           
1 48664U 21044AC  25006.30324812  .00000068  00000+0  23476-4 0  9994
2 48664  53.0528 230.2254 0001458  92.9039 267.2117 15.06394633200335
STARLINK-2666           
1 48666U 21044AE  25006.32912150 -.00000584  00000+0 -20348-4 0  9996
2 48666  53.0478 230.5833 0001140 100.0320 260.0797 15.06392826200325
STARLINK-2735           
1 48667U 21044AF  25006.03418641  .00005405  00000+0  38139-3 0  9992
2 48667  53.0529 231.4363 0001265  90.3177 269.7957 15.06409330200233
STARLINK-2738           
1 48668U 21044AG  25006.03049225 -.00001254  00000+0 -65305-4 0  9997
2 48668  53.0583 231.4560 0002169  97.7931 262.3304 15.06396676200295
STARLINK-2707           
1 48669U 21044AH  25006.02680458 -.00000921  00000+0 -42937-4 0  9992
2 48669  53.0537 231.4692 0001542  91.1260 268.9905 15.06387143200229
STARLINK-2763           
1 48670U 21044AJ  25006.02310862 -.00005228  00000+0 -33242-3 0  9996
2 48670  53.0536 231.4863 0001582  99.3046 260.8122 15.06388970200227
STARLINK-2745           
1 48671U 21044AK  25006.04896702  .00000838  00000+0  75154-4 0  9990
2 48671  53.0549 231.6788 0001919  87.4635 272.6574 15.06399278200221
STARLINK-2705           
1 48672U 21044AL  25006.01576109  .00005857  00000+0  41168-3 0  9997
2 48672  53.0541 231.5202 0001489  96.9123 263.2036 15.06406449200287
STARLINK-2711           
1 48673U 21044AM  25006.01207770  .00003058  00000+0  22410-3 0  9993
2 48673  53.0552 231.5400 0001903  83.8339 276.2866 15.06399229200287
STARLINK-2712           
1 48674U 21044AN  25006.01945763  .00001668  00000+0  13088-3 0  9991
2 48674  53.0553 231.6220 0001647  81.8412 278.2763 15.06399805200283
STARLINK-2737           
1 48675U 21044AP  25005.91667824  .01198384  00000+0  15563-1 0  9990
2 48675  53.0475 228.0975 0001103 100.5544 317.4803 15.55745933  5843
STARLINK-2746           
1 48676U 21044AQ  25005.33754098  .00003757  00000+0  27100-3 0  9997
2 48676  53.0533 234.5654 0001055  80.2733 279.8375 15.06395385200182
STARLINK-2615           
1 48678U 21044AS  25005.99363940 -.00001013  00000+0 -49106-4 0  9999
2 48678  53.0554 231.6244 0002121  98.2091 261.9139 15.06390696200226
STARLINK-2648           
1 48679U 21044AT  25006.05628720  .00000129  00000+0  27570-4 0  9994
2 48679  53.0534 231.3376 0001148 105.2171 254.8945 15.06389508200231
STARLINK-2649           
1 48680U 21044AU  25006.05261655 -.00000824  00000+0 -36406-4 0  9998
2 48680  53.0534 231.3549 0001692  87.9238 272.1945 15.06397472200297
STARLINK-2725           
1 48681U 21044AV  25005.25555048  .00000088  00000+0  24782-4 0  9996
2 48681  53.0488 205.1680 0001746  67.7165 292.4009 15.06399059199685
STARLINK-2743           
1 48682U 21044AW  25005.91625683  .00019739  00000+0  13386-2 0  9992
2 48682  53.0536 192.1298 0001358  85.4674 274.6470 15.06447899200763
STARLINK-2756           
1 48683U 21044AX  25005.93835260  .00004084  00000+0  29287-3 0  9994
2 48683  53.0555 191.8757 0001548  95.8886 264.2280 15.06406596200776
STARLINK-2741           
1 48684U 21044AY  25005.96095859  .00000884  00000+0  78247-4 0  9995
2 48684  53.0507 207.1262 0001260  85.0170 275.0962 15.06387679200625
STARLINK-2751           
1 48685U 21044AZ  25006.50598090  .00002667  00000+0  19780-3 0  9999
2 48685  53.0523 189.3679 0001658  85.2571 274.8607 15.06411260200868
STARLINK-2629           
1 48686U 21044BA  25006.50001460  .00000214  00000+0  33241-4 0  9995
2 48686  53.0528 194.6231 0001655  89.9001 270.2178 15.06392840200846
STARLINK-2627           
1 48687U 21044BB  25005.94433488  .00002730  00000+0  20209-3 0  9996
2 48687  53.0520 186.8416 0001171  83.9652 276.1470 15.06403412200844
STARLINK-2742           
1 48688U 21044BC  25005.94803539  .00000345  00000+0  42053-4 0  9997
2 48688  53.0490 186.8197 0001984  84.2630 275.8585 15.06388987200841
STARLINK-2617           
1 48689U 21044BD  25005.96071662  .01338977  10899-2  17930-2 0  9994
2 48689  53.0380 173.9127 0011641 313.6628  46.3438 16.06047824201029
STARLINK-2740           
1 48690U 21044BE  25005.95953087  .00000360  00000+0  43063-4 0  9994
2 48690  53.0528 201.7721 0001307  94.3138 265.8000 15.06391119200695
STARLINK-2750           
1 48691U 21044BF  25005.79966795  .00004039  00000+0  28988-3 0  9992
2 48691  53.0511 197.4917 0001471  79.0049 281.1105 15.06401940199844
STARLINK-2752           
1 48692U 21044BG  25005.91763379  .00003712  00000+0  26794-3 0  9990
2 48692  53.0531 197.0876 0001211  88.3449 271.7678 15.06402364200705
STARLINK-2618           
1 48693U 21044BH  25006.25715396  .00006710  00000+0  46868-3 0  9990
2 48693  53.0525 200.4360 0001120  96.0500 264.0617 15.06416869200689
STARLINK-2748           
1 48694U 21044BJ  25006.55709388  .00001434  00000+0  11513-3 0  9995
2 48694  53.0540 204.0795 0001533  86.6497 273.4667 15.06407804200652
STARLINK-2616           
1 48695U 21044BK  25005.25322617  .00000740  00000+0  68583-4 0  9997
2 48695  53.0543 209.9883 0001504  81.9780 278.1379 15.06388504199620
STARLINK-2753           
1 48696U 21044BL  25005.97336320  .00000848  00000+0  75857-4 0  9994
2 48696  53.0514 211.7588 0001217  81.6268 278.4859 15.06386803200507
ONEWEB-0211             
1 48767U 21045A   25006.39803427 -.00000096  00000+0 -29016-3 0  9990
2 48767  87.9069   4.0559 0001628  92.9041 267.2276 13.15548821176282
ONEWEB-0223             
1 48768U 21045B   25005.73569591  .00000103  00000+0  24024-3 0  9990
2 48768  87.9068   4.2018 0001291  99.9247 260.2029 13.15547866175056
ONEWEB-0230             
1 48769U 21045C   25005.70715864 -.00000020  00000+0 -87808-4 0  9994
2 48769  87.9070   4.2755 0001678  84.0580 276.0741 13.15546569175316
